CCSDS_OMM_VERS = 2.0
CREATION_DATE  = 
ORIGINATOR     = 

OBJECT_NAME    = STARLINK-36050
OBJECT_ID      = 2025-270Q
CENTER_NAME    = EARTH
REF_FRAME      = TEME
TIME_SYSTEM    = UTC
MEAN_ELEMENT_THEORY = SGP/SGP4

EPOCH          = 2025-12-06T06:00:02.000160
MEAN_MOTION    = 15.69884228
ECCENTRICITY   = .00018523
INCLINATION    = 42.9989
RA_OF_ASC_NODE = 231.0083
ARG_OF_PERICENTER = 265.2193
MEAN_ANOMALY   = 82.5729

EPHEMERIS_TYPE = 0
CLASSIFICATION_TYPE = U
NORAD_CAT_ID   = 66602
ELEMENT_SET_NO = 999
REV_AT_EPOCH   = 325
BSTAR          = -.17262936E-1
MEAN_MOTION_DOT = -.189047E-1
MEAN_MOTION_DDOT = 0

CCSDS_OMM_VERS = 2.0
CREATION_DATE  = 
ORIGINATOR     = 

OBJECT_NAME    = STARLINK-36048
OBJECT_ID      = 2025-270R
CENTER_NAME    = EARTH
REF_FRAME      = TEME
TIME_SYSTEM    = UTC
MEAN_ELEMENT_THEORY = SGP/SGP4

EPOCH          = 2025-12-06T06:00:02.000160
MEAN_MOTION    = 15.69838231
ECCENTRICITY   = .00020238
INCLINATION    = 42.9988
RA_OF_ASC_NODE = 231.0030
ARG_OF_PERICENTER = 273.2272
MEAN_ANOMALY   = 76.5181

EPHEMERIS_TYPE = 0
CLASSIFICATION_TYPE = U
NORAD_CAT_ID   = 66603
ELEMENT_SET_NO = 999
REV_AT_EPOCH   = 325
BSTAR          = -.16819804E-1
MEAN_MOTION_DOT = -.1809006E-1
MEAN_MOTION_DDOT = 0

CCSDS_OMM_VERS = 2.0
CREATION_DATE  = 
ORIGINATOR     = 

OBJECT_NAME    = STARLINK-35977
OBJECT_ID      = 2025-270S
CENTER_NAME    = EARTH
REF_FRAME      = TEME
TIME_SYSTEM    = UTC
MEAN_ELEMENT_THEORY = SGP/SGP4

EPOCH          = 2025-12-06T06:00:02.000160
MEAN_MOTION    = 15.69882028
ECCENTRICITY   = .00018435
INCLINATION    = 42.9989
RA_OF_ASC_NODE = 230.9984
ARG_OF_PERICENTER = 268.6801
MEAN_ANOMALY   = 82.9500

EPHEMERIS_TYPE = 0
CLASSIFICATION_TYPE = U
NORAD_CAT_ID   = 66604
ELEMENT_SET_NO = 999
REV_AT_EPOCH   = 335
BSTAR          = -.17259411E-1
MEAN_MOTION_DOT = -.1889964E-1
MEAN_MOTION_DDOT = 0

CCSDS_OMM_VERS = 2.0
CREATION_DATE  = 
ORIGINATOR     = 

OBJECT_NAME    = STARLINK-36052
OBJECT_ID      = 2025-270T
CENTER_NAME    = EARTH
REF_FRAME      = TEME
TIME_SYSTEM    = UTC
MEAN_ELEMENT_THEORY = SGP/SGP4

EPOCH          = 2025-12-06T06:00:02.000160
MEAN_MOTION    = 15.69881390
ECCENTRICITY   = .00017127
INCLINATION    = 42.9990
RA_OF_ASC_NODE = 230.9941
ARG_OF_PERICENTER = 265.7503
MEAN_ANOMALY   = 87.7947

EPHEMERIS_TYPE = 0
CLASSIFICATION_TYPE = U
NORAD_CAT_ID   = 66605
ELEMENT_SET_NO = 999
REV_AT_EPOCH   = 335
BSTAR          = -.17220135E-1
MEAN_MOTION_DOT = -.1886E-1
MEAN_MOTION_DDOT = 0

CCSDS_OMM_VERS = 2.0
CREATION_DATE  = 
ORIGINATOR     = 

OBJECT_NAME    = STARLINK-36063
OBJECT_ID      = 2025-270U
CENTER_NAME    = EARTH
REF_FRAME      = TEME
TIME_SYSTEM    = UTC
MEAN_ELEMENT_THEORY = SGP/SGP4

EPOCH          = 2025-12-06T06:00:02.000160
MEAN_MOTION    = 15.69882255
ECCENTRICITY   = .00018095
INCLINATION    = 42.9989
RA_OF_ASC_NODE = 230.9841
ARG_OF_PERICENTER = 267.4719
MEAN_ANOMALY   = 89.9087

EPHEMERIS_TYPE = 0
CLASSIFICATION_TYPE = U
NORAD_CAT_ID   = 66606
ELEMENT_SET_NO = 999
REV_AT_EPOCH   = 335
BSTAR          = -.17254377E-1
MEAN_MOTION_DOT = -.1889465E-1
MEAN_MOTION_DDOT = 0

CCSDS_OMM_VERS = 2.0
CREATION_DATE  = 
ORIGINATOR     = 

OBJECT_NAME    = STARLINK-35993
OBJECT_ID      = 2025-270V
CENTER_NAME    = EARTH
REF_FRAME      = TEME
TIME_SYSTEM    = UTC
MEAN_ELEMENT_THEORY = SGP/SGP4

EPOCH          = 2025-12-06T06:00:02.000160
MEAN_MOTION    = 15.69882880
ECCENTRICITY   = .00017126
INCLINATION    = 42.9990
RA_OF_ASC_NODE = 230.9895
ARG_OF_PERICENTER = 265.6051
MEAN_ANOMALY   = 89.8571

EPHEMERIS_TYPE = 0
CLASSIFICATION_TYPE = U
NORAD_CAT_ID   = 66607
ELEMENT_SET_NO = 999
REV_AT_EPOCH   = 325
BSTAR          = -.1725015E-1
MEAN_MOTION_DOT = -.1889024E-1
MEAN_MOTION_DDOT = 0

CCSDS_OMM_VERS = 2.0
CREATION_DATE  = 
ORIGINATOR     = 

OBJECT_NAME    = STARLINK-36036
OBJECT_ID      = 2025-270W
CENTER_NAME    = EARTH
REF_FRAME      = TEME
TIME_SYSTEM    = UTC
MEAN_ELEMENT_THEORY = SGP/SGP4

EPOCH          = 2025-12-06T06:00:02.000160
MEAN_MOTION    = 15.69888064
ECCENTRICITY   = .00018324
INCLINATION    = 42.9988
RA_OF_ASC_NODE = 230.9796
ARG_OF_PERICENTER = 269.6693
MEAN_ANOMALY   = 89.6217

EPHEMERIS_TYPE = 0
CLASSIFICATION_TYPE = U
NORAD_CAT_ID   = 66608
ELEMENT_SET_NO = 999
REV_AT_EPOCH   = 319
BSTAR          = -.17284277E-1
MEAN_MOTION_DOT = -.1892801E-1
MEAN_MOTION_DDOT = 0

CCSDS_OMM_VERS = 2.0
CREATION_DATE  = 
ORIGINATOR     = 

OBJECT_NAME    = STARLINK-36034
OBJECT_ID      = 2025-270X
CENTER_NAME    = EARTH
REF_FRAME      = TEME
TIME_SYSTEM    = UTC
MEAN_ELEMENT_THEORY = SGP/SGP4

EPOCH          = 2025-12-06T06:00:02.000160
MEAN_MOTION    = 15.69885463
ECCENTRICITY   = .00016669
INCLINATION    = 42.9990
RA_OF_ASC_NODE = 230.9753
ARG_OF_PERICENTER = 269.8521
MEAN_ANOMALY   = 91.3604

EPHEMERIS_TYPE = 0
CLASSIFICATION_TYPE = U
NORAD_CAT_ID   = 66609
ELEMENT_SET_NO = 999
REV_AT_EPOCH   = 319
BSTAR          = -.1727322E-1
MEAN_MOTION_DOT = -.1891415E-1
MEAN_MOTION_DDOT = 0

CCSDS_OMM_VERS = 2.0
CREATION_DATE  = 
ORIGINATOR     = 

OBJECT_NAME    = STARLINK-35680
OBJECT_ID      = 2025-270Y
CENTER_NAME    = EARTH
REF_FRAME      = TEME
TIME_SYSTEM    = UTC
MEAN_ELEMENT_THEORY = SGP/SGP4

EPOCH          = 2025-12-06T06:00:02.000160
MEAN_MOTION    = 15.69883688
ECCENTRICITY   = .00016836
INCLINATION    = 42.9990
RA_OF_ASC_NODE = 230.9702
ARG_OF_PERICENTER = 267.2951
MEAN_ANOMALY   = 95.8341

EPHEMERIS_TYPE = 0
CLASSIFICATION_TYPE = U
NORAD_CAT_ID   = 66610
ELEMENT_SET_NO = 999
REV_AT_EPOCH   = 346
BSTAR          = -.17247242E-1
MEAN_MOTION_DOT = -.1888777E-1
MEAN_MOTION_DDOT = 0

CCSDS_OMM_VERS = 2.0
CREATION_DATE  = 
ORIGINATOR     = 

OBJECT_NAME    = STARLINK-35583
OBJECT_ID      = 2025-270Z
CENTER_NAME    = EARTH
REF_FRAME      = TEME
TIME_SYSTEM    = UTC
MEAN_ELEMENT_THEORY = SGP/SGP4

EPOCH          = 2025-12-06T06:00:02.000160
MEAN_MOTION    = 15.69883143
ECCENTRICITY   = .00016826
INCLINATION    = 42.9990
RA_OF_ASC_NODE = 230.9652
ARG_OF_PERICENTER = 268.2856
MEAN_ANOMALY   = 96.7617

EPHEMERIS_TYPE = 0
CLASSIFICATION_TYPE = U
NORAD_CAT_ID   = 66611
ELEMENT_SET_NO = 999
REV_AT_EPOCH   = 346
BSTAR          = -.17245121E-1
MEAN_MOTION_DOT = -.1888531E-1
MEAN_MOTION_DDOT = 0

CCSDS_OMM_VERS = 2.0
CREATION_DATE  = 
ORIGINATOR     = 

OBJECT_NAME    = STARLINK-36039
OBJECT_ID      = 2025-270AA
CENTER_NAME    = EARTH
REF_FRAME      = TEME
TIME_SYSTEM    = UTC
MEAN_ELEMENT_THEORY = SGP/SGP4

EPOCH          = 2025-12-06T06:00:02.000160
MEAN_MOTION    = 15.69884438
ECCENTRICITY   = .00017117
INCLINATION    = 42.9990
RA_OF_ASC_NODE = 230.9601
ARG_OF_PERICENTER = 268.1481
MEAN_ANOMALY   = 98.8153

EPHEMERIS_TYPE = 0
CLASSIFICATION_TYPE = U
NORAD_CAT_ID   = 66612
ELEMENT_SET_NO = 999
REV_AT_EPOCH   = 335
BSTAR          = -.17258943E-1
MEAN_MOTION_DOT = -.1889989E-1
MEAN_MOTION_DDOT = 0

CCSDS_OMM_VERS = 2.0
CREATION_DATE  = 
ORIGINATOR     = 

OBJECT_NAME    = STARLINK-36037
OBJECT_ID      = 2025-270AB
CENTER_NAME    = EARTH
REF_FRAME      = TEME
TIME_SYSTEM    = UTC
MEAN_ELEMENT_THEORY = SGP/SGP4

EPOCH          = 2025-12-06T06:00:02.000160
MEAN_MOTION    = 15.69882543
ECCENTRICITY   = .00017097
INCLINATION    = 42.9989
RA_OF_ASC_NODE = 230.9552
ARG_OF_PERICENTER = 268.3928
MEAN_ANOMALY   = 100.4885

EPHEMERIS_TYPE = 0
CLASSIFICATION_TYPE = U
NORAD_CAT_ID   = 66613
ELEMENT_SET_NO = 999
REV_AT_EPOCH   = 335
BSTAR          = -.17234876E-1
MEAN_MOTION_DOT = -.1887513E-1
MEAN_MOTION_DDOT = 0

