STARLINK-36050          
1 66602U 25270Q   25340.25002315 -.01890470  00000+0 -17263-1 0  9998
2 66602  42.9989 231.0083 0001852 265.2193  82.5729 15.69884228  3250
STARLINK-36048          
1 66603U 25270R   25340.25002315 -.01809006  00000+0 -16820-1 0  9992
2 66603  42.9988 231.0030 0002023 273.2272  76.5181 15.69838231  3258
STARLINK-35977          
1 66604U 25270S   25340.25002315 -.01889964  00000+0 -17259-1 0  9991
2 66604  42.9989 230.9984 0001843 268.6801  82.9500 15.69882028  3351
STARLINK-36052          
1 66605U 25270T   25340.25002315 -.01886000  00000+0 -17220-1 0  9998
2 66605  42.9990 230.9941 0001712 265.7503  87.7947 15.69881390  3358
STARLINK-36063          
1 66606U 25270U   25340.25002315 -.01889465  00000+0 -17254-1 0  9994
2 66606  42.9989 230.9841 0001809 267.4719  89.9087 15.69882255  3351
STARLINK-35993          
1 66607U 25270V   25340.25002315 -.01889024  00000+0 -17250-1 0  9992
2 66607  42.9990 230.9895 0001712 265.6051  89.8571 15.69882880  3255
STARLINK-36036          
1 66608U 25270W   25340.25002315 -.01892801  00000+0 -17284-1 0  9997
2 66608  42.9988 230.9796 0001832 269.6693  89.6217 15.69888064  3190
STARLINK-36034          
1 66609U 25270X   25340.25002315 -.01891415  00000+0 -17273-1 0  9996
2 66609  42.9990 230.9753 0001666 269.8521  91.3604 15.69885463  3194
STARLINK-35680          
1 66610U 25270Y   25340.25002315 -.01888777  00000+0 -17247-1 0  9996
2 66610  42.9990 230.9702 0001683 267.2951  95.8341 15.69883688  3462
STARLINK-35583          
1 66611U 25270Z   25340.25002315 -.01888531  00000+0 -17245-1 0  9993
2 66611  42.9990 230.9652 0001682 268.2856  96.7617 15.69883143  3463
STARLINK-36039          
1 66612U 25270AA  25340.25002315 -.01889989  00000+0 -17259-1 0  9997
2 66612  42.9990 230.9601 0001711 268.1481  98.8153 15.69884438  3358
STARLINK-36037          
1 66613U 25270AB  25340.25002315 -.01887513  00000+0 -17235-1 0  9993
2 66613  42.9989 230.9552 0001709 268.3928 100.4885 15.69882543  3354
